[{"OBJECT_NAME":"ONEWEB-0700","OBJECT_ID":"2024-188N","EPOCH":"2025-09-24T22:49:47.430624","MEAN_MOTION":13.10375146,"ECCENTRICITY":0.00021382,"INCLINATION":87.8742,"RA_OF_ASC_NODE":89.0257,"ARG_OF_PERICENTER":103.3048,"MEAN_ANOMALY":256.8318,"EPHEMERIS_TYPE":0,"CLASSIFICATION_TYPE":"U","NORAD_CAT_ID":61606,"ELEMENT_SET_NO":999,"REV_AT_EPOCH":4856,"BSTAR":0.0018463739,"MEAN_MOTION_DOT":6.57e-6,"MEAN_MOTION_DDOT":0},{"OBJECT_NAME":"ONEWEB-0701","OBJECT_ID":"2024-188P","EPOCH":"2025-09-24T12:13:56.568000","MEAN_MOTION":13.10370348,"ECCENTRICITY":0.00016935,"INCLINATION":87.8734,"RA_OF_ASC_NODE":89.2348,"ARG_OF_PERICENTER":118.4028,"MEAN_ANOMALY":241.727,"EPHEMERIS_TYPE":0,"CLASSIFICATION_TYPE":"U","NORAD_CAT_ID":61607,"ELEMENT_SET_NO":999,"REV_AT_EPOCH":4851,"BSTAR":0.0010752898,"MEAN_MOTION_DOT":3.88e-6,"MEAN_MOTION_DDOT":0},{"OBJECT_NAME":"ONEWEB-0702","OBJECT_ID":"2024-188Q","EPOCH":"2025-09-24T12:09:45.516384","MEAN_MOTION":13.11417449,"ECCENTRICITY":0.00020815,"INCLINATION":87.8727,"RA_OF_ASC_NODE":73.937,"ARG_OF_PERICENTER":118.7796,"MEAN_ANOMALY":241.3541,"EPHEMERIS_TYPE":0,"CLASSIFICATION_TYPE":"U","NORAD_CAT_ID":61608,"ELEMENT_SET_NO":999,"REV_AT_EPOCH":4966,"BSTAR":-0.00065462395,"MEAN_MOTION_DOT":-2.19e-6,"MEAN_MOTION_DDOT":0},{"OBJECT_NAME":"ONEWEB-0704","OBJECT_ID":"2024-188R","EPOCH":"2025-09-24T22:56:57.098688","MEAN_MOTION":13.10373451,"ECCENTRICITY":0.00021687,"INCLINATION":87.8763,"RA_OF_ASC_NODE":89.0989,"ARG_OF_PERICENTER":114.3912,"MEAN_ANOMALY":245.7442,"EPHEMERIS_TYPE":0,"CLASSIFICATION_TYPE":"U","NORAD_CAT_ID":61609,"ELEMENT_SET_NO":999,"REV_AT_EPOCH":4855,"BSTAR":0.0018758516,"MEAN_MOTION_DOT":6.68e-6,"MEAN_MOTION_DDOT":0},{"OBJECT_NAME":"ONEWEB-0705","OBJECT_ID":"2024-188S","EPOCH":"2025-09-24T23:04:05.678112","MEAN_MOTION":13.10382249,"ECCENTRICITY":0.00028576,"INCLINATION":87.8747,"RA_OF_ASC_NODE":89.1297,"ARG_OF_PERICENTER":95.382,"MEAN_ANOMALY":264.7633,"EPHEMERIS_TYPE":0,"CLASSIFICATION_TYPE":"U","NORAD_CAT_ID":61610,"ELEMENT_SET_NO":999,"REV_AT_EPOCH":4072,"BSTAR":0.0043749505,"MEAN_MOTION_DOT":1.54e-5,"MEAN_MOTION_DDOT":0},{"OBJECT_NAME":"ONEWEB-0706","OBJECT_ID":"2024-188T","EPOCH":"2025-09-24T22:42:36.297216","MEAN_MOTION":13.10375399,"ECCENTRICITY":0.00021042,"INCLINATION":87.8745,"RA_OF_ASC_NODE":89.1596,"ARG_OF_PERICENTER":102.9228,"MEAN_ANOMALY":257.2134,"EPHEMERIS_TYPE":0,"CLASSIFICATION_TYPE":"U","NORAD_CAT_ID":61611,"ELEMENT_SET_NO":999,"REV_AT_EPOCH":4864,"BSTAR":0.0011603323,"MEAN_MOTION_DOT":4.18e-6,"MEAN_MOTION_DDOT":0},{"OBJECT_NAME":"ONEWEB-0707","OBJECT_ID":"2024-188U","EPOCH":"2025-09-24T22:52:11.338464","MEAN_MOTION":13.10374122,"ECCENTRICITY":0.00020333,"INCLINATION":87.875,"RA_OF_ASC_NODE":89.1254,"ARG_OF_PERICENTER":104.3843,"MEAN_ANOMALY":255.751,"EPHEMERIS_TYPE":0,"CLASSIFICATION_TYPE":"U","NORAD_CAT_ID":61612,"ELEMENT_SET_NO":999,"REV_AT_EPOCH":4858,"BSTAR":0.0017915033,"MEAN_MOTION_DOT":6.38e-6,"MEAN_MOTION_DDOT":0},{"OBJECT_NAME":"ONEWEB-0708","OBJECT_ID":"2024-188V","EPOCH":"2025-09-24T12:18:43.438464","MEAN_MOTION":13.10370044,"ECCENTRICITY":0.00023842,"INCLINATION":87.8753,"RA_OF_ASC_NODE":89.255,"ARG_OF_PERICENTER":97.8368,"MEAN_ANOMALY":262.303,"EPHEMERIS_TYPE":0,"CLASSIFICATION_TYPE":"U","NORAD_CAT_ID":61613,"ELEMENT_SET_NO":999,"REV_AT_EPOCH":4850,"BSTAR":0.00054101352,"MEAN_MOTION_DOT":2.02e-6,"MEAN_MOTION_DDOT":0}]
